FENGYUN 1C DEB          
1 30631U 99025ANN 17345.84840716  .00001486  00000-0  64120-3 0  9991
2 30631  99.0357  94.0423 0051988 126.0925 356.0916 14.25343012560394
